STARLINK-31458          
1 59501U 24071T   26075.66228031 -.00001874  00000+0 -58587-4 0  9990
2 59501  43.0051 300.2215 0001778 281.2492  78.8160 15.27574869109272
STARLINK-31357          
1 59502U 24071U   26075.89569723  .00002167  00000+0  88236-4 0  9990
2 59502  42.9986 299.3962 0000634 224.1263 135.9538 15.27573753109306
STARLINK-31508          
1 59503U 24071V   26075.89953467 -.00002154  00000+0 -68788-4 0  9991
2 59503  43.0016 299.4252 0000922 259.2412 100.8336 15.27583988109309
STARLINK-31535          
1 59504U 24071W   26075.67173789  .00002250  00000+0  91266-4 0  9991
2 59504  43.0017 308.0757 0000917 274.6123  85.4624 15.27576960109188
STARLINK-31533          
1 59505U 24071X   26075.64572005  .00010160  00000+0  37816-3 0  9992
2 59505  42.9987 300.9568 0001383 262.1564  97.9131 15.27585749109268
STARLINK-31524          
1 59506U 24071Y   26075.88250056 -.00000027  00000+0  85430-5 0  9997
2 59506  42.9987 292.1784 0001347 273.2137  86.8560 15.27579123109385
STARLINK-31635          
1 59511U 24073A   26075.57907611 -.00000526  00000+0 -96068-5 0  9991
2 59511  43.0021 278.7390 0001200 272.9022  87.1692 15.27570876107230
STARLINK-31650          
1 59512U 24073B   26075.61505666 -.00001374  00000+0 -40450-4 0  9996
2 59512  43.0026 279.0053 0001299 268.6418  91.4284 15.27566093107236
STARLINK-31658          
1 59513U 24073C   26075.83924924  .00031198  00000+0  11446-2 0  9999
2 59513  43.0029 237.3638 0001153 158.6422 201.4478 15.27403808107724
STARLINK-31669          
1 59515U 24073E   26075.85089398  .00003850  00000+0  14933-3 0  9999
2 59515  42.9963 277.3344 0000863 272.6724  87.4029 15.27582403107271
STARLINK-31671          
1 59516U 24073F   26075.82148511  .00000887  00000+0  41752-4 0  9997
2 59516  43.0009 277.9692 0001268 207.0564 153.0222 15.27578294107268
STARLINK-31674          
1 59517U 24073G   26075.86245965 -.00001425  00000+0 -42247-4 0  9994
2 59517  43.0017 277.4227 0002281 274.9940  85.0651 15.27580954107271
STARLINK-31679          
1 59519U 24073J   26074.61257273  .00000054  00000+0  11470-4 0  9992
2 59519  43.0000 273.9907 0001117 237.6660 122.4084 15.27573953107203
STARLINK-31370          
1 59520U 24073K   26075.62276073 -.00000816  00000+0 -20135-4 0  9991
2 59520  43.0003 279.0635 0001117 249.2063 110.8669 15.27577927107237
STARLINK-31404          
1 59521U 24073L   26075.82920039  .00001819  00000+0  75618-4 0  9990
2 59521  43.0028 278.0325 0001481 259.8457 100.2228 15.27571935107268
STARLINK-31453          
1 59522U 24073M   26075.79043551  .00017177  00000+0  63175-3 0  9990
2 59522  42.9972 260.1367 0001252 257.8829 102.1883 15.27606605107463
