[{"OBJECT_NAME":"STARLINK-31458","OBJECT_ID":"2024-071T","EPOCH":"2026-03-16T15:53:41.018784","MEAN_MOTION":15.27574869,"ECCENTRICITY":0.0001778,"INCLINATION":43.0051,"RA_OF_ASC_NODE":300.2215,"ARG_OF_PERICENTER":281.2492,"MEAN_ANOMALY":78.816,"EPHEMERIS_TYPE":0,"CLASSIFICATION_TYPE":"U","NORAD_CAT_ID":59501,"ELEMENT_SET_NO":999,"REV_AT_EPOCH":10927,"BSTAR":-5.8587e-5,"MEAN_MOTION_DOT":-1.874e-5,"MEAN_MOTION_DDOT":0},{"OBJECT_NAME":"STARLINK-31357","OBJECT_ID":"2024-071U","EPOCH":"2026-03-16T21:29:48.240672","MEAN_MOTION":15.27573753,"ECCENTRICITY":6.34e-5,"INCLINATION":42.9986,"RA_OF_ASC_NODE":299.3962,"ARG_OF_PERICENTER":224.1263,"MEAN_ANOMALY":135.9538,"EPHEMERIS_TYPE":0,"CLASSIFICATION_TYPE":"U","NORAD_CAT_ID":59502,"ELEMENT_SET_NO":999,"REV_AT_EPOCH":10930,"BSTAR":8.8236e-5,"MEAN_MOTION_DOT":2.167e-5,"MEAN_MOTION_DDOT":0},{"OBJECT_NAME":"STARLINK-31508","OBJECT_ID":"2024-071V","EPOCH":"2026-03-16T21:35:19.795488","MEAN_MOTION":15.27583988,"ECCENTRICITY":9.22e-5,"INCLINATION":43.0016,"RA_OF_ASC_NODE":299.4252,"ARG_OF_PERICENTER":259.2412,"MEAN_ANOMALY":100.8336,"EPHEMERIS_TYPE":0,"CLASSIFICATION_TYPE":"U","NORAD_CAT_ID":59503,"ELEMENT_SET_NO":999,"REV_AT_EPOCH":10930,"BSTAR":-6.8788e-5,"MEAN_MOTION_DOT":-2.154e-5,"MEAN_MOTION_DDOT":0},{"OBJECT_NAME":"STARLINK-31535","OBJECT_ID":"2024-071W","EPOCH":"2026-03-16T16:07:18.153696","MEAN_MOTION":15.2757696,"ECCENTRICITY":9.17e-5,"INCLINATION":43.0017,"RA_OF_ASC_NODE":308.0757,"ARG_OF_PERICENTER":274.6123,"MEAN_ANOMALY":85.4624,"EPHEMERIS_TYPE":0,"CLASSIFICATION_TYPE":"U","NORAD_CAT_ID":59504,"ELEMENT_SET_NO":999,"REV_AT_EPOCH":10918,"BSTAR":9.1266e-5,"MEAN_MOTION_DOT":2.25e-5,"MEAN_MOTION_DDOT":0},{"OBJECT_NAME":"STARLINK-31533","OBJECT_ID":"2024-071X","EPOCH":"2026-03-16T15:29:50.212320","MEAN_MOTION":15.27585749,"ECCENTRICITY":0.0001383,"INCLINATION":42.9987,"RA_OF_ASC_NODE":300.9568,"ARG_OF_PERICENTER":262.1564,"MEAN_ANOMALY":97.9131,"EPHEMERIS_TYPE":0,"CLASSIFICATION_TYPE":"U","NORAD_CAT_ID":59505,"ELEMENT_SET_NO":999,"REV_AT_EPOCH":10926,"BSTAR":0.00037816,"MEAN_MOTION_DOT":0.0001016,"MEAN_MOTION_DDOT":0},{"OBJECT_NAME":"STARLINK-31524","OBJECT_ID":"2024-071Y","EPOCH":"2026-03-16T21:10:48.048384","MEAN_MOTION":15.27579123,"ECCENTRICITY":0.0001347,"INCLINATION":42.9987,"RA_OF_ASC_NODE":292.1784,"ARG_OF_PERICENTER":273.2137,"MEAN_ANOMALY":86.856,"EPHEMERIS_TYPE":0,"CLASSIFICATION_TYPE":"U","NORAD_CAT_ID":59506,"ELEMENT_SET_NO":999,"REV_AT_EPOCH":10938,"BSTAR":8.543e-6,"MEAN_MOTION_DOT":-2.7e-7,"MEAN_MOTION_DDOT":0},{"OBJECT_NAME":"STARLINK-31635","OBJECT_ID":"2024-073A","EPOCH":"2026-03-16T13:53:52.175904","MEAN_MOTION":15.27570876,"ECCENTRICITY":0.00012,"INCLINATION":43.0021,"RA_OF_ASC_NODE":278.739,"ARG_OF_PERICENTER":272.9022,"MEAN_ANOMALY":87.1692,"EPHEMERIS_TYPE":0,"CLASSIFICATION_TYPE":"U","NORAD_CAT_ID":59511,"ELEMENT_SET_NO":999,"REV_AT_EPOCH":10723,"BSTAR":-9.6068e-6,"MEAN_MOTION_DOT":-5.26e-6,"MEAN_MOTION_DDOT":0},{"OBJECT_NAME":"STARLINK-31650","OBJECT_ID":"2024-073B","EPOCH":"2026-03-16T14:45:40.895424","MEAN_MOTION":15.27566093,"ECCENTRICITY":0.0001299,"INCLINATION":43.0026,"RA_OF_ASC_NODE":279.0053,"ARG_OF_PERICENTER":268.6418,"MEAN_ANOMALY":91.4284,"EPHEMERIS_TYPE":0,"CLASSIFICATION_TYPE":"U","NORAD_CAT_ID":59512,"ELEMENT_SET_NO":999,"REV_AT_EPOCH":10723,"BSTAR":-4.045e-5,"MEAN_MOTION_DOT":-1.374e-5,"MEAN_MOTION_DDOT":0},{"OBJECT_NAME":"STARLINK-31658","OBJECT_ID":"2024-073C","EPOCH":"2026-03-16T20:08:31.134336","MEAN_MOTION":15.27403808,"ECCENTRICITY":0.0001153,"INCLINATION":43.0029,"RA_OF_ASC_NODE":237.3638,"ARG_OF_PERICENTER":158.6422,"MEAN_ANOMALY":201.4478,"EPHEMERIS_TYPE":0,"CLASSIFICATION_TYPE":"U","NORAD_CAT_ID":59513,"ELEMENT_SET_NO":999,"REV_AT_EPOCH":10772,"BSTAR":0.0011446,"MEAN_MOTION_DOT":0.00031198,"MEAN_MOTION_DDOT":0},{"OBJECT_NAME":"STARLINK-31669","OBJECT_ID":"2024-073E","EPOCH":"2026-03-16T20:25:17.239872","MEAN_MOTION":15.27582403,"ECCENTRICITY":8.63e-5,"INCLINATION":42.9963,"RA_OF_ASC_NODE":277.3344,"ARG_OF_PERICENTER":272.6724,"MEAN_ANOMALY":87.4029,"EPHEMERIS_TYPE":0,"CLASSIFICATION_TYPE":"U","NORAD_CAT_ID":59515,"ELEMENT_SET_NO":999,"REV_AT_EPOCH":10727,"BSTAR":0.00014933,"MEAN_MOTION_DOT":3.85e-5,"MEAN_MOTION_DDOT":0},{"OBJECT_NAME":"STARLINK-31671","OBJECT_ID":"2024-073F","EPOCH":"2026-03-16T19:42:56.313504","MEAN_MOTION":15.27578294,"ECCENTRICITY":0.0001268,"INCLINATION":43.0009,"RA_OF_ASC_NODE":277.9692,"ARG_OF_PERICENTER":207.0564,"MEAN_ANOMALY":153.0222,"EPHEMERIS_TYPE":0,"CLASSIFICATION_TYPE":"U","NORAD_CAT_ID":59516,"ELEMENT_SET_NO":999,"REV_AT_EPOCH":10726,"BSTAR":4.1752e-5,"MEAN_MOTION_DOT":8.87e-6,"MEAN_MOTION_DDOT":0},{"OBJECT_NAME":"STARLINK-31674","OBJECT_ID":"2024-073G","EPOCH":"2026-03-16T20:41:56.513760","MEAN_MOTION":15.27580954,"ECCENTRICITY":0.0002281,"INCLINATION":43.0017,"RA_OF_ASC_NODE":277.4227,"ARG_OF_PERICENTER":274.994,"MEAN_ANOMALY":85.0651,"EPHEMERIS_TYPE":0,"CLASSIFICATION_TYPE":"U","NORAD_CAT_ID":59517,"ELEMENT_SET_NO":999,"REV_AT_EPOCH":10727,"BSTAR":-4.2247e-5,"MEAN_MOTION_DOT":-1.425e-5,"MEAN_MOTION_DDOT":0},{"OBJECT_NAME":"STARLINK-31679","OBJECT_ID":"2024-073J","EPOCH":"2026-03-15T14:42:06.283872","MEAN_MOTION":15.27573953,"ECCENTRICITY":0.00011171,"INCLINATION":43,"RA_OF_ASC_NODE":273.9907,"ARG_OF_PERICENTER":237.666,"MEAN_ANOMALY":122.4084,"EPHEMERIS_TYPE":0,"CLASSIFICATION_TYPE":"U","NORAD_CAT_ID":59519,"ELEMENT_SET_NO":999,"REV_AT_EPOCH":10720,"BSTAR":1.1470007e-5,"MEAN_MOTION_DOT":5.4e-7,"MEAN_MOTION_DDOT":0},{"OBJECT_NAME":"STARLINK-31370","OBJECT_ID":"2024-073K","EPOCH":"2026-03-16T14:56:46.527072","MEAN_MOTION":15.27577927,"ECCENTRICITY":0.0001117,"INCLINATION":43.0003,"RA_OF_ASC_NODE":279.0635,"ARG_OF_PERICENTER":249.2063,"MEAN_ANOMALY":110.8669,"EPHEMERIS_TYPE":0,"CLASSIFICATION_TYPE":"U","NORAD_CAT_ID":59520,"ELEMENT_SET_NO":999,"REV_AT_EPOCH":10723,"BSTAR":-2.0135e-5,"MEAN_MOTION_DOT":-8.16e-6,"MEAN_MOTION_DDOT":0},{"OBJECT_NAME":"STARLINK-31404","OBJECT_ID":"2024-073L","EPOCH":"2026-03-16T19:54:02.913696","MEAN_MOTION":15.27571935,"ECCENTRICITY":0.0001481,"INCLINATION":43.0028,"RA_OF_ASC_NODE":278.0325,"ARG_OF_PERICENTER":259.8457,"MEAN_ANOMALY":100.2228,"EPHEMERIS_TYPE":0,"CLASSIFICATION_TYPE":"U","NORAD_CAT_ID":59521,"ELEMENT_SET_NO":999,"REV_AT_EPOCH":10726,"BSTAR":7.5618e-5,"MEAN_MOTION_DOT":1.819e-5,"MEAN_MOTION_DDOT":0},{"OBJECT_NAME":"STARLINK-31453","OBJECT_ID":"2024-073M","EPOCH":"2026-03-16T18:58:13.628064","MEAN_MOTION":15.27606605,"ECCENTRICITY":0.0001252,"INCLINATION":42.9972,"RA_OF_ASC_NODE":260.1367,"ARG_OF_PERICENTER":257.8829,"MEAN_ANOMALY":102.1883,"EPHEMERIS_TYPE":0,"CLASSIFICATION_TYPE":"U","NORAD_CAT_ID":59522,"ELEMENT_SET_NO":999,"REV_AT_EPOCH":10746,"BSTAR":0.00063175,"MEAN_MOTION_DOT":0.00017177,"MEAN_MOTION_DDOT":0}]
